{
  "type": "FeatureCollection",
  "features": [
    {
      "type": "Feature",
      "properties": {},
      "geometry": {
        "coordinates": [
          [
            [
              5.659633638936782,
              48.150310221615115
            ],
            [
              5.659633638936782,
              43.309667343628945
            ],
            [
              15.972771088326738,
              43.309667343628945
            ],
            [
              15.972771088326738,
              48.150310221615115
            ],
            [
              5.659633638936782,
              48.150310221615115
            ]
          ]
        ],
        "type": "Polygon"
      }
    }
  ]
}